{
  "58679": {
    "noradId": "58679",
    "tle": [
      "1 58679C 23211N   26030.14979167  .00030949  00000+0  11211-2 0   307",
      "2 58679  43.0013 302.7708 0001747 261.9394  52.3112 15.27543619    16"
    ]
  },
  "58680": {
    "noradId": "58680",
    "tle": [
      "1 58680C 23211P   26030.15048611  .00029111  00000+0  10547-2 0   301",
      "2 58680  43.0006 302.8669 0001443 269.3976   6.2289 15.27540650    13"
    ]
  },
  "58681": {
    "noradId": "58681",
    "tle": [
      "1 58681C 23211Q   26030.14701389  .00036006  00000+0  13044-2 0   305",
      "2 58681  43.0013 303.0876 0001318 265.4595 266.1548 15.27534594    15"
    ]
  },
  "58682": {
    "noradId": "58682",
    "tle": [
      "1 58682C 23211R   26030.14979167  .00035457  00000+0  12844-2 0   303",
      "2 58682  43.0032 302.5108 0001525 264.3063 156.0742 15.27538966    17"
    ]
  },
  "58683": {
    "noradId": "58683",
    "tle": [
      "1 58683C 23211S   26030.15187500  .00035308  00000+0  12792-2 0   304",
      "2 58683  43.0016 303.2279 0001635 262.4754 225.1685 15.27533538    19"
    ]
  },
  "58684": {
    "noradId": "58684",
    "tle": [
      "1 58684C 23211T   26030.15118056  .00020634  00000+0  74753-3 0   307",
      "2 58684  43.0023 303.3154 0001481 260.2353 188.2036 15.27550400    17"
    ]
  },
  "58685": {
    "noradId": "58685",
    "tle": [
      "1 58685C 23211U   26030.14840278  .00033689  00000+0  12202-2 0   309",
      "2 58685  43.0036 302.5691 0001724 267.8534 123.6272 15.27546153    18"
    ]
  },
  "58686": {
    "noradId": "58686",
    "tle": [
      "1 58686C 23211V   26030.15048611  .00015347  00000+0  55621-3 0   306",
      "2 58686  43.0014 303.0295 0001423 266.3804 298.5561 15.27542385    17"
    ]
  },
  "58688": {
    "noradId": "58688",
    "tle": [
      "1 58688C 23211X   26030.15187500  .00429300  00000+0  13916-2 0   307",
      "2 58688  42.9793 279.6033 0025981 231.9406 228.3878 15.88763146    19"
    ]
  },
  "58689": {
    "noradId": "58689",
    "tle": [
      "1 58689C 23211Y   26030.15118056  .00021658  00000+0  78472-3 0   301",
      "2 58689  43.0006 302.9263 0001430 272.3455 338.8174 15.27545951    11"
    ]
  },
  "58705": {
    "noradId": "58705",
    "tle": [
      "1 58705C 24002A   26030.17826389 -.00030160  00000+0 -24838-3 0   303",
      "2 58705  53.1579 103.8674 0001025  96.7912  86.5803 15.69745354    18"
    ]
  },
  "58706": {
    "noradId": "58706",
    "tle": [
      "1 58706C 24002B   26030.17340278  .00019989  00000+0  16445-3 0   301",
      "2 58706  53.1573 103.9527 0001161  85.3803  42.7865 15.69720108    17"
    ]
  },
  "58707": {
    "noradId": "58707",
    "tle": [
      "1 58707C 24002C   26030.17826389 -.00060251  00000+0 -49629-3 0   304",
      "2 58707  53.1570 103.9656 0001209  87.2915  40.6347 15.69770372    16"
    ]
  },
  "58708": {
    "noradId": "58708",
    "tle": [
      "1 58708C 24002D   26030.17756944 -.00021064  00000+0 -17350-3 0   309",
      "2 58708  53.1574 103.8104 0001153  85.2985 121.9058 15.69731839    18"
    ]
  },
  "58709": {
    "noradId": "58709",
    "tle": [
      "1 58709C 24002E   26030.17756944 -.00020991  00000+0 -17289-3 0   309",
      "2 58709  53.1575 103.7586 0001286  64.8134 170.1251 15.69732996    15"
    ]
  },
  "58710": {
    "noradId": "58710",
    "tle": [
      "1 58710C 24002F   26030.17618056 -.00021693  00000+0 -17862-3 0   309",
      "2 58710  53.1571 103.7091 0001191  81.5730 173.2333 15.69739823    18"
    ]
  },
  "58711": {
    "noradId": "58711",
    "tle": [
      "1 58711C 24002G   26030.14493056  .00016336  00000+0  61253-3 0   307",
      "2 58711  53.1587  49.0292 0001003  65.6916 280.3502 15.26692725    12"
    ]
  },
  "58712": {
    "noradId": "58712",
    "tle": [
      "1 58712C 24002H   26030.14909722 -.00020409  00000+0 -68778-3 0   307",
      "2 58712  53.1594  48.7836 0001262  95.8786  26.1112 15.30215144    12"
    ]
  },
  "58713": {
    "noradId": "58713",
    "tle": [
      "1 58713C 24002J   26030.15048611  .00013801  00000+0  46518-3 0   304",
      "2 58713  53.1592  48.8463 0001268  85.1406   9.6401 15.30174669    18"
    ]
  },
  "58714": {
    "noradId": "58714",
    "tle": [
      "1 58714C 24002K   26030.14770833 -.00010276  00000+0 -34625-3 0   303",
      "2 58714  53.1586  48.8914 0001273  92.7845 329.1985 15.30209722    16"
    ]
  },
  "58715": {
    "noradId": "58715",
    "tle": [
      "1 58715C 24002L   26030.14770833 -.00016301  00000+0 -54931-3 0   301",
      "2 58715  53.1589  49.1481 0001288  90.6605 197.5501 15.30213176    19"
    ]
  },
  "58716": {
    "noradId": "58716",
    "tle": [
      "1 58716C 24002M   26030.14840278 -.00017174  00000+0 -57876-3 0   303",
      "2 58716  53.1585  48.9098 0001077  90.2833 323.8975 15.30212719    13"
    ]
  },
  "58717": {
    "noradId": "58717",
    "tle": [
      "1 58717C 24002N   26030.15048611 -.00010368  00000+0 -34937-3 0   307",
      "2 58717  53.1583  48.9942 0001292  95.3601 289.5768 15.30207884    13"
    ]
  },
  "58718": {
    "noradId": "58718",
    "tle": [
      "1 58718C 24002P   26030.14909722 -.00020423  00000+0 -68824-3 0   301",
      "2 58718  53.1582  48.9517 0001182  88.4955 306.2492 15.30215815    18"
    ]
  },
  "58719": {
    "noradId": "58719",
    "tle": [
      "1 58719C 24002Q   26030.15187500 -.00015876  00000+0 -53499-3 0   303",
      "2 58719  53.1582  48.9933 0001300  92.7614 288.2097 15.30212426    18"
    ]
  },
  "58720": {
    "noradId": "58720",
    "tle": [
      "1 58720C 24002R   26030.15187500  .00160650  00000+0  47126-2 0   303",
      "2 58720  53.1568  48.1563 0004580  79.8505   9.4363 15.34446100    14"
    ]
  },
  "58721": {
    "noradId": "58721",
    "tle": [
      "1 58721C 24002S   26030.15187500 -.00013771  00000+0 -46408-3 0   300",
      "2 58721  53.1589  48.8460 0001094  93.6906   2.8938 15.30210054    15"
    ]
  },
  "58722": {
    "noradId": "58722",
    "tle": [
      "1 58722C 24002T   26030.14701389 -.00006446  00000+0 -21719-3 0   306",
      "2 58722  53.1582  49.0480 0001276  95.6753 241.0509 15.30207029    17"
    ]
  },
  "58723": {
    "noradId": "58723",
    "tle": [
      "1 58723C 24002U   26030.14631944 -.00008294  00000+0 -27946-3 0   307",
      "2 58723  53.1584  48.9485 0001090  89.5140 295.7279 15.30208874    18"
    ]
  },
  "58724": {
    "noradId": "58724",
    "tle": [
      "1 58724C 24002V   26030.14701389  .00009521  00000+0  32077-3 0   302",
      "2 58724  53.1596  49.1933 0001513  88.5671 178.3445 15.30193057    18"
    ]
  },
  "58725": {
    "noradId": "58725",
    "tle": [
      "1 58725C 24002W   26030.14701389 -.00013686  00000+0 -46119-3 0   304",
      "2 58725  53.1601  48.9024 0001218  86.9136 325.4286 15.30210590    14"
    ]
  },
  "58729": {
    "noradId": "58729",
    "tle": [
      "1 58729C 24005B   26030.14770833 -.00006242  00000+0 -46064-3 0   300",
      "2 58729  43.0030  70.6563 0001357 265.3687 268.0055 15.02537641    14"
    ]
  },
  "58732": {
    "noradId": "58732",
    "tle": [
      "1 58732C 24005E   26030.14631944  .00011168  00000+0  82419-3 0   308",
      "2 58732  43.0029  71.0194 0001616 261.9597 119.6383 15.02519200    17"
    ]
  },
  "58733": {
    "noradId": "58733",
    "tle": [
      "1 58733C 24005F   26030.15118056  .00013169  00000+0  97169-3 0   305",
      "2 58733  43.0032  71.4562 0001220 268.2473 301.3419 15.02522046    11"
    ]
  },
  "58734": {
    "noradId": "58734",
    "tle": [
      "1 58734C 24005G   26030.15118056  .00015995  00000+0  11807-2 0   309",
      "2 58734  43.0031  71.4126 0001431 252.4973 335.1725 15.02504662    10"
    ]
  },
  "58735": {
    "noradId": "58735",
    "tle": [
      "1 58735C 24005H   26030.15118056  .00013836  00000+0  10209-2 0   307",
      "2 58735  43.0029  71.3661 0001413 261.1290 344.5211 15.02521133    16"
    ]
  },
  "58736": {
    "noradId": "58736",
    "tle": [
      "1 58736C 24005J   26030.15048611  .00017967  00000+0  13256-2 0   301",
      "2 58736  43.0031  71.3290 0001619 258.4390   1.3742 15.02520553    18"
    ]
  },
  "58737": {
    "noradId": "58737",
    "tle": [
      "1 58737C 24005K   26030.14562500  .00012865  00000+0  94927-3 0   306",
      "2 58737  43.0032  71.2680 0001311 259.6448  10.0206 15.02522381    11"
    ]
  },
  "58738": {
    "noradId": "58738",
    "tle": [
      "1 58738C 24005L   26030.14840278  .00014618  00000+0  10805-2 0   308",
      "2 58738  43.0031  71.2964 0001104 249.8002  16.9909 15.02452950    12"
    ]
  },
  "58739": {
    "noradId": "58739",
    "tle": [
      "1 58739C 24005M   26030.14493056 -.00001976  00000+0 -14578-3 0   304",
      "2 58739  43.0029  71.2260 0001439 264.9127  18.9904 15.02535869    14"
    ]
  },
  "58740": {
    "noradId": "58740",
    "tle": [
      "1 58740C 24005N   26030.15048611  .00009034  00000+0  66658-3 0   307",
      "2 58740  43.0029  71.1546 0001284 267.3666  64.6558 15.02527090    15"
    ]
  },
  "58741": {
    "noradId": "58741",
    "tle": [
      "1 58741C 24005P   26030.14631944 -.00002232  00000+0 -16472-3 0   308",
      "2 58741  43.0030  71.1525 0001386 268.8619  58.6305 15.02534168    19"
    ]
  },
  "58742": {
    "noradId": "58742",
    "tle": [
      "1 58742C 24005Q   26030.14909722  .00015779  00000+0  11644-2 0   304",
      "2 58742  43.0031  71.0940 0001320 269.7178  90.8656 15.02514982    18"
    ]
  },
  "58743": {
    "noradId": "58743",
    "tle": [
      "1 58743C 24005R   26030.14493056 -.00003418  00000+0 -25221-3 0   309",
      "2 58743  43.0031  71.0735 0001196 260.2305  95.8083 15.02536154    14"
    ]
  },
  "58744": {
    "noradId": "58744",
    "tle": [
      "1 58744C 24005S   26030.14979167  .00030175  00000+0  10933-2 0   303",
      "2 58744  43.0034 291.9618 0001348 270.4129 297.4277 15.27538315    10"
    ]
  }
}